STARLINK-33788          
1 63589U 25076W   26164.65043381  .00018332  00000+0  67381-3 0  9994
2 63589  43.0024 139.9934 0002740 264.3343  95.7196 15.27589673 66509
STARLINK-33805          
1 63590U 25076X   26164.66071558  .00017533  00000+0  64475-3 0  9997
2 63590  42.9963 140.0626 0001604 300.7450  59.3244 15.27599507 66501
STARLINK-33702          
1 63591U 25076Y   26164.61445734  .00015560  00000+0  57354-3 0  9990
2 63591  43.0045 139.7143 0002441 268.6988  91.3584 15.27592390 66508
STARLINK-33666          
1 63592U 25076Z   26163.66449846  .00021745  00000+0  79661-3 0  9990
2 63592  43.0027 145.4911 0002904 264.4480  95.6041 15.27610656 66355
STARLINK-33723          
1 63593U 25076AA  26164.62087573  .00021454  00000+0  78593-3 0  9993
2 63593  42.9964 139.7596 0003732 279.6661  80.3769 15.27615462 66503
STARLINK-33791          
1 63594U 25076AB  26164.64784690  .00019719  00000+0  72352-3 0  9998
2 63594  43.0101 139.9702 0007022 266.0547  93.9502 15.27592654 66501
STARLINK-33831          
1 63595U 25076AC  26164.62472211  .00024549  00000+0  89799-3 0  9990
2 63595  43.0050 139.7308 0002546 278.4204  81.6359 15.27603018 66509
STARLINK-33879          
1 63634U 25083A   26164.74757115  .00019391  00000+0  71193-3 0  9992
2 63634  43.0046 183.0743 0000950 119.4808 240.6139 15.27598186 64751
STARLINK-33854          
1 63635U 25083B   26164.77054345  .00014912  00000+0  55008-3 0  9992
2 63635  42.9994 182.3867 0002133 260.5749  99.4861 15.27593741 64763
STARLINK-33864          
1 63636U 25083C   26164.75141699  .00002221  00000+0  90202-4 0  9996
2 63636  42.9985 183.1020 0001653 269.0739  90.9923 15.27583756 64785
STARLINK-33832          
1 63637U 25083D   26164.76283280  .00018657  00000+0  68546-3 0  9996
2 63637  42.9964 182.3310 0002167 263.3498  96.7107 15.27594421 64763
STARLINK-33856          
1 63638U 25083E   26164.77311678  .00021359  00000+0  78293-3 0  9994
2 63638  43.0020 182.4029 0001161 273.1522  86.9197 15.27601826 64765
STARLINK-33876          
1 63639U 25083F   26164.33082917  .00014385  00000+0  53092-3 0  9999
2 63639  42.9986 185.0966 0003969 278.8312  81.2090 15.27595016 64696
STARLINK-33859          
1 63640U 25083G   26164.75012963  .00017730  00000+0  65198-3 0  9998
2 63640  42.9961 183.0953 0002332 268.2188  91.8396 15.27593916 64752
STARLINK-33826          
1 63641U 25083H   26164.77568965  .00015188  00000+0  56001-3 0  9997
2 63641  42.9980 182.4227 0000876 208.5827 151.4976 15.27597011 64767
STARLINK-33836          
1 63642U 25083J   26164.34882073  .00014057  00000+0  51912-3 0  9990
2 63642  43.0001 185.2435 0000456 233.3774 126.7036 15.27594955 64695
STARLINK-33558          
1 63643U 25083K   26164.76668168  .00007292  00000+0  27418-3 0  9991
2 63643  43.0048 182.3572 0003287 266.4492  93.5984 15.27588018 64760
STARLINK-33852          
1 63644U 25083L   26164.34754395  .00018950  00000+0  69622-3 0  9990
2 63644  43.0009 185.2329 0000741 117.1874 242.9053 15.27587902 64722
STARLINK-33835          
1 63645U 25083M   26164.33468527  .00023640  00000+0  86523-3 0  9990
2 63645  42.9976 185.1227 0000616 236.5374 123.5418 15.27602980 64725
STARLINK-33661          
1 63646U 25083N   26164.77826999  .00016372  00000+0  60401-3 0  9991
2 63646  43.0030 182.4289 0002605 230.2786 129.7836 15.27531540 64797
STARLINK-33729          
1 63647U 25083P   26164.74627895  .00020418  00000+0  74877-3 0  9991
2 63647  42.9934 183.0611 0002302 279.5566  80.5025 15.27608207 64756
STARLINK-33717          
1 63648U 25083Q   26164.76925414  .00012240  00000+0  45345-3 0  9994
2 63648  43.0057 182.3737 0003645 270.4228  89.6206 15.27586543 64762
STARLINK-33684          
1 63649U 25083R   26163.78075529  .00017419  00000+0  64050-3 0  9996
2 63649  42.9945 187.8544 0001859 267.2667  92.7971 15.27606773 64615
STARLINK-33704          
1 63650U 25083S   26164.32570924  .00016810  00000+0  61840-3 0  9996
2 63650  43.0039 185.0649 0004480 278.0866  81.9477 15.27604737 64690
STARLINK-33705          
1 63651U 25083T   26164.77953562  .00015825  00000+0  58281-3 0  9999
2 63651  43.0054 182.4433 0003147 268.8905  91.1587 15.27608411 64799
STARLINK-33663          
1 63652U 25083U   26164.77182624  .00012312  00000+0  45593-3 0  9993
2 63652  43.0013 182.3827 0001817 267.4722  92.5921 15.27597469 64769
STARLINK-33866          
1 63653U 25083V   26164.73729434  .00025983  00000+0  94989-3 0  9997
2 63653  42.9931 182.9860 0004038 277.9597  82.0796 15.27591877 64787
STARLINK-33849          
1 63654U 25083W   26164.73472486  .00018954  00000+0  69606-3 0  9998
2 63654  43.0026 182.9696 0003723 279.2507  80.7923 15.27598922 64750
STARLINK-33873          
1 63655U 25083X   26164.73599612  .00018281  00000+0  67183-3 0  9991
2 63655  42.9986 182.9785 0002206 278.1293  81.9309 15.27596688 64789
STARLINK-33772          
1 63656U 25083Y   26164.32697780  .00029682  00000+0  10818-2 0  9991
2 63656  42.9992 185.0694 0000790 229.2199 130.8584 15.27639289 64726
STARLINK-33789          
1 63657U 25083Z   26164.77697093  .00015214  00000+0  56088-3 0  9994
2 63657  42.9968 182.4347 0001627 307.5322  52.5381 15.27600842 64799
STARLINK-33822          
1 63658U 25083AA  26164.34110970  .00024371  00000+0  89175-3 0  9999
2 63658  43.0010 185.1757 0001317 274.0070  86.0631 15.27596964 64721
STARLINK-33771          
1 63659U 25083AB  26164.77649525  .00020556  00000+0  75397-3 0  9992
2 63659  43.0007 185.9622 0002222 272.4524  87.6074 15.27599836 64751
STARLINK-33810          
1 63660U 25083AC  26164.76796522  .00021979  00000+0  80527-3 0  9994
2 63660  42.9987 182.3575 0003610 265.0848  94.9591 15.27599395 64794
STARLINK-33823          
1 63661U 25083AD  26164.33725428  .00020002  00000+0  73390-3 0  9991
2 63661  43.0107 185.1565 0000656 273.7049  86.3728 15.27603067 64729
STARLINK-11651 [DTC]    
1 63664U 25085A   26164.43229763  .00198759  00000+0  14861-2 0  9990
2 63664  43.0007  60.9590 0003460 321.0609  39.0009 15.71306578 65313
STARLINK-11672 [DTC]    
1 63665U 25085B   26164.74487909  .00157872  00000+0  12092-2 0  9998
2 63665  43.0022  58.9978 0002486 261.6003  98.4583 15.70865373 65961
STARLINK-11666 [DTC]    
1 63667U 25085D   26164.73969654  .00188245  00000+0  14367-2 0  9996
2 63667  43.0013  59.8508 0003932 221.6889 138.3679 15.70849034 65255
STARLINK-11663 [DTC]    
1 63668U 25085E   26164.41647187  .00223846  00000+0  16937-2 0  9998
2 63668  43.0015  61.7237 0002922 278.0128  82.0408 15.70946673 65307
STARLINK-11595 [DTC]    
1 63669U 25085F   26164.72908310  .00154839  00000+0  11869-2 0  9995
2 63669  43.0021  59.7652 0002529 258.2855 101.7729 15.70856707 65991
STARLINK-11599 [DTC]    
1 63670U 25085G   26164.02435263  .00148466  00000+0  11358-2 0  9994
2 63670  43.0008  63.9362 0000641 206.5609 153.5226 15.70928451 65239
STARLINK-11603 [DTC]    
1 63671U 25085H   26164.01904364  .00223382  00000+0  16892-2 0  9996
2 63671  43.0001  63.8932 0000722 217.6426 142.4391 15.70963711 65233
STARLINK-11644 [DTC]    
1 63672U 25085J   26164.01373456  .00184010  00000+0  14054-2 0  9991
2 63672  43.0005  63.8503 0001256 238.1083 121.9662 15.70851086 65236
STARLINK-11634 [DTC]    
1 63673U 25085K   26164.00842683  .00182987  00000+0  13929-2 0  9995
2 63673  43.0010  63.8072 0001009 235.7448 124.3325 15.70934376 65235
STARLINK-11656 [DTC]    
1 63674U 25085L   26164.00311621  .00030715  00000+0  24192-3 0  9995
2 63674  43.0027  63.7647 0002050 260.4410  99.6226 15.70845242 65239
STARLINK-11655 [DTC]    
1 63675U 25085M   26164.82439443  .00304465  00000+0  22855-2 0  9998
2 63675  42.9985  58.7433 0001264 305.3948  54.6801 15.70890644 65369
STARLINK-11661 [DTC]    
1 63676U 25085N   26164.43757493  .00187100  00000+0  14233-2 0  9990
2 63676  43.0018  60.9954 0004456 265.8737  94.1621 15.70928325 65956
STARLINK-33816          
1 63677U 25085P   26163.86232491  .00019950  00000+0  73175-3 0  9991
2 63677  42.9999 213.5804 0002237 268.8123  91.2472 15.27613490 63529
STARLINK-33861          
1 63678U 25085Q   26164.84827683  .00015104  00000+0  55699-3 0  9992
2 63678  43.0010 208.0830 0001163  88.2430 271.8555 15.27597422 63564
STARLINK-33850          
1 63679U 25085R   26164.43666857  .00016472  00000+0  60634-3 0  9996
2 63679  42.9999 210.1493 0003758 288.4826  71.5617 15.27599375 63500
STARLINK-33887          
1 63680U 25085S   26164.83335647 -.00025372  00000+0 -91509-3 0  9998
2 63680  42.9994 207.4980 0001684 273.1501 280.7214 15.27597751  5592
STARLINK-33886          
1 63681U 25085T   26164.40197238  .00014695  00000+0  54268-3 0  9999
2 63681  42.9970 209.8829 0001062 261.5457  98.5274 15.27565824 63519
STARLINK-33840          
1 63682U 25085U   26163.86360770  .00019874  00000+0  72897-3 0  9994
2 63682  43.0017 213.5886 0002251 265.8867  94.1727 15.27615244 63429
STARLINK-33853          
1 63684U 25085W   26164.80713461  .00021924  00000+0  80325-3 0  9994
2 63684  42.9923 207.7596 0002450 278.6605  81.3969 15.27602976 63571
STARLINK-33847          
1 63685U 25085X   26164.83412223  .00020711  00000+0  75955-3 0  9996
2 63685  43.0042 207.9691 0001447 265.6237  94.4449 15.27600615 63572
STARLINK-33880          
1 63686U 25085Y   26164.84699220  .00016223  00000+0  59756-3 0  9996
2 63686  43.0026 208.0709 0001790 293.5346  66.5317 15.27591150 63688
STARLINK-33894          
1 63697U 25087A   26164.63991644  .00022854  00000+0  68548-3 0  9998
2 63697  53.1592 132.2078 0001364  92.0404 268.0754 15.34399641 63910
STARLINK-33922          
1 63698U 25087B   26164.64066299  .00023149  00000+0  79115-3 0  9999
2 63698  53.1585 133.6286 0001776  84.5357 275.5847 15.30204411 63887
STARLINK-33919          
1 63699U 25087C   26164.63126984  .00009915  00000+0  34629-3 0  9993
2 63699  53.1590 134.2769 0001551  88.6269 271.4910 15.30213848 63885
